SCD 1                   
1 22490U 93009B   26191.02147049  .00000324  00000+0  37843-4 0  9991
2 22490  24.9701  66.5857 0041908  19.9746 116.4934 14.46127497764423
TECHSAT 1B (GO-32)      
1 25397U 98043D   26191.38503001  .00000024  00000+0  30598-4 0  9993
2 25397  99.0081 184.7300 0002059 122.4891 237.6486 14.24432755454636
SCD 2                   
1 25504U 98060A   26191.72135020  .00000294  00000+0  31207-4 0  9999
2 25504  24.9955 287.0279 0016843  12.6653 119.2000 14.45534023463739
DLR-TUBSAT              
1 25757U 99029B   26191.78496264  .00000029  00000+0  19109-4 0  9994
2 25757  98.6707 188.0667 0012979 279.3505  80.6221 14.52432671436670
TERRA                   
1 25994U 99068A   26191.85442301  .00000188  00000+0  47181-4 0  9998
2 25994  97.9443 240.4608 0003234 131.2978 317.0558 14.61121475413069
MAROC-TUBSAT            
1 27004U 01056D   26191.73369308 -.00000019  00000+0  31169-4 0  9997
2 27004  99.8095   9.0383 0020634  83.0792 344.3434 13.70263380229418
AQUA                    
1 27424U 02022A   26191.86238751  .00000412  00000+0  91663-4 0  9999
2 27424  98.4292 161.6206 0000813 105.6447 283.9748 14.62193112286733
SHIYAN-1 (SY-1)         
1 28220U 04012A   26191.20922018  .00010088  00000+0  30561-3 0  9998
2 28220  97.8689 270.7823 0004081 299.3678  60.7156 15.34369818214627
AURA                    
1 28376U 04026A   26191.81385587  .00000418  00000+0  94414-4 0  9990
2 28376  98.3428 148.4647 0001268  92.2500 267.8846 14.61363859169666
IRS-P5 (CARTOSAT-1)     
1 28649U 05017A   26190.49211259  .00000943  00000+0  10046-3 0  9992
2 28649  97.5305 212.5447 0001681  56.2573 303.8806 14.91108210147141
SINAH 1                 
1 28893U 05043D   26191.83611025  .00000160  00000+0  39707-4 0  9993
2 28893  98.2887 326.3010 0014071 197.2965 162.7760 14.64173754103983
RESURS-DK 1             
1 29228U 06021A   26190.24541127  .00001215  00000+0  74141-4 0  9995
2 29228  69.9328 282.4503 0006781 277.8398  82.1999 15.13306588105916
ARIRANG-2 (KOMPSAT-2)   
1 29268U 06031A   26191.87639976  .00000361  00000+0  76168-4 0  9992
2 29268  97.8318  15.1781 0014622   4.5859 133.1129 14.64674856 64948
LAPAN-TUBSAT            
1 29709U 07001A   26191.82248186  .00000517  00000+0  65758-4 0  9990
2 29709  98.1354 191.5798 0013532 106.5980 253.6722 14.85973753 54662
HAIYANG-1B              
1 31113U 07010A   26191.42818984  .00000052  00000+0  35367-4 0  9994
2 31113  98.3511 172.3737 0014485 128.9609 231.2868 14.31032554  3961
COSMO-SKYMED 1          
1 31598U 07023A   26191.86128837  .00001295  00000+0  11713-3 0  9992
2 31598  97.8844  23.9174 0001098  98.7005 261.4341 14.97206792 33331
TERRASAR-X              
1 31698U 07026A   26188.47915537  .00000240  00000+0  14624-4 0  9994
2 31698  97.4461 195.8972 0001878  86.9540 273.1909 15.19153986 56300
WORLDVIEW-1 (WV-1)      
1 32060U 07041A   26191.72621706  .00003926  00000+0  16247-3 0  9995
2 32060  97.3892 311.1383 0001149 232.1635 127.9499 15.24527560 46466
YAOGAN-3                
1 32289U 07055A   26191.88722244  .00001085  00000+0  11575-3 0  9992
2 32289  97.8150 221.5302 0001469  79.7564 280.3820 14.90868956  9401
COSMO-SKYMED 2          
1 32376U 07059A   26191.85722519  .00000205  00000+0  32275-4 0  9999
2 32376  97.8891  15.1125 0001439  93.0838 267.0540 14.82148343  5511
RADARSAT-2              
1 32382U 07061A   26191.82790986 -.00000047  00000+0 -12851-5 0  9994
2 32382  98.5786 198.4222 0001323  84.4428 275.6905 14.29982263969330
CARTOSAT-2A             
1 32783U 08021A   26191.85679563  .00000094  00000+0  19333-4 0  9997
2 32783  97.7626 239.7561 0012837  40.2554 319.9606 14.79272533982305
HUANJING 1A (HJ-1A)     
1 33320U 08041A   26191.83295007  .00000404  00000+0  54508-4 0  9990
2 33320  97.6695 176.7580 0020520  62.9252 297.4054 14.84040613961912
HUANJING 1B (HJ-1B)     
1 33321U 08041B   26191.88032590  .00000720  00000+0  93077-4 0  9997
2 33321  97.6533 179.9037 0037905 104.7879 255.7540 14.83361316961924
GEOEYE 1                
1 33331U 08042A   26191.78901903  .00000213  00000+0  49075-4 0  9997
2 33331  98.1328 265.4365 0004278   1.6307 358.4909 14.64647137953609
THEOS                   
1 33396U 08049A   26191.85335230  .00000052  00000+0  44392-4 0  9995
2 33396  98.5562 248.3673 0001103  86.5670 273.5633 14.20136341921322
COSMO-SKYMED 3          
1 33412U 08054A   26191.84707197  .00001637  00000+0  11318-3 0  9995
2 33412  97.8265  50.8101 0015454 180.0671 180.0557 15.07097337960507
YAOGAN-4                
1 33446U 08061A   26191.23904740  .00000606  00000+0  80608-4 0  9990
2 33446  97.9305 124.5797 0014279   1.9835 358.1433 14.83245790949089
GOSAT (IBUKI)           
1 33492U 09002A   26191.25211760 -.00000055  00000+0 -12238-5 0  9997
2 33492  98.0915 302.0457 0001034  88.6000 271.5323 14.67535064934848
DEIMOS-1                
1 35681U 09041A   26191.85780319  .00000131  00000+0  26335-4 0  9994
2 35681  97.7429 348.0631 0002721  98.8173 261.3345 14.75260616910378
