OBJECT_NAME,OBJECT_ID,EPOCH,MEAN_MOTION,ECCENTRICITY,INCLINATION,RA_OF_ASC_NODE,ARG_OF_PERICENTER,MEAN_ANOMALY,EPHEMERIS_TYPE,CLASSIFICATION_TYPE,NORAD_CAT_ID,ELEMENT_SET_NO,REV_AT_EPOCH,BSTAR,MEAN_MOTION_DOT,MEAN_MOTION_DDOT
SCD 1,1993-009B,2026-07-10T00:30:55.050336,14.46127497,.00419086,24.9701,66.5857,19.9746,116.4934,0,U,22490,999,76442,.37842574E-4,.324E-5,0
TECHSAT 1B (GO-32),1998-043D,2026-07-10T09:14:26.592864,14.24432755,.00020595,99.0081,184.7300,122.4891,237.6486,0,U,25397,999,45463,.30598468E-4,.24E-6,0
SCD 2,1998-060A,2026-07-10T17:18:44.657280,14.45534023,.0016843,24.9955,287.0279,12.6653,119.2000,0,U,25504,999,46373,.31207E-4,.294E-5,0
DLR-TUBSAT,1999-029B,2026-07-10T18:50:20.772096,14.52432671,.0012979,98.6707,188.0667,279.3505,80.6221,0,U,25757,999,43667,.19109E-4,.29E-6,0
TERRA,1999-068A,2026-07-10T20:30:22.148064,14.61121475,.0003234,97.9443,240.4608,131.2978,317.0558,0,U,25994,999,41306,.47181E-4,.188E-5,0
MAROC-TUBSAT,2001-056D,2026-07-10T17:36:31.082112,13.70263380,.0020634,99.8095,9.0383,83.0792,344.3434,0,U,27004,999,22941,.31169E-4,-.19E-6,0
AQUA,2002-022A,2026-07-10T20:41:50.280864,14.62193112,.0000813,98.4292,161.6206,105.6447,283.9748,0,U,27424,999,28673,.91663E-4,.412E-5,0
SHIYAN-1 (SY-1),2004-012A,2026-07-10T05:01:16.623552,15.34369818,.00040815,97.8689,270.7823,299.3678,60.7156,0,U,28220,999,21462,.30561261E-3,.10088E-3,0
AURA,2004-026A,2026-07-10T19:31:57.147168,14.61363859,.0001268,98.3428,148.4647,92.2500,267.8846,0,U,28376,999,16966,.94414E-4,.418E-5,0
IRS-P5 (CARTOSAT-1),2005-017A,2026-07-09T11:48:38.527776,14.91108210,.00016817,97.5305,212.5447,56.2573,303.8806,0,U,28649,999,14714,.10046227E-3,.943E-5,0
SINAH 1,2005-043D,2026-07-10T20:03:59.925600,14.64173754,.0014071,98.2887,326.3010,197.2965,162.7760,0,U,28893,999,10398,.39707E-4,.16E-5,0
RESURS-DK 1,2006-021A,2026-07-09T05:53:23.533728,15.13306588,.00067816,69.9328,282.4503,277.8398,82.1999,0,U,29228,999,10591,.74140722E-4,.1215E-4,0
ARIRANG-2 (KOMPSAT-2),2006-031A,2026-07-10T21:02:00.939264,14.64674856,.0014622,97.8318,15.1781,4.5859,133.1129,0,U,29268,999,6494,.76168E-4,.361E-5,0
LAPAN-TUBSAT,2007-001A,2026-07-10T19:44:22.432704,14.85973753,.0013532,98.1354,191.5798,106.5980,253.6722,0,U,29709,999,5466,.65758E-4,.517E-5,0
HAIYANG-1B,2007-010A,2026-07-10T10:16:35.602176,14.31032554,.00144857,98.3511,172.3737,128.9609,231.2868,0,U,31113,999,396,.35366842E-4,.52E-6,0
COSMO-SKYMED 1,2007-023A,2026-07-10T20:40:15.315168,14.97206792,.0001098,97.8844,23.9174,98.7005,261.4341,0,U,31598,999,3333,.11713E-3,.1295E-4,0
TERRASAR-X,2007-026A,2026-07-07T11:29:59.023968,15.19153986,.0001878,97.4461,195.8972,86.9540,273.1909,0,U,31698,999,5630,.14624E-4,.24E-5,0
WORLDVIEW-1 (WV-1),2007-041A,2026-07-10T17:25:45.153984,15.24527560,.0001149,97.3892,311.1383,232.1635,127.9499,0,U,32060,999,4646,.16247E-3,.3926E-4,0
YAOGAN-3,2007-055A,2026-07-10T21:17:36.018816,14.90868956,.0001469,97.8150,221.5302,79.7564,280.3820,0,U,32289,999,940,.11575E-3,.1085E-4,0
COSMO-SKYMED 2,2007-059A,2026-07-10T20:34:24.256416,14.82148343,.0001439,97.8891,15.1125,93.0838,267.0540,0,U,32376,999,551,.32275E-4,.205E-5,0
RADARSAT-2,2007-061A,2026-07-10T19:52:11.411904,14.29982263,.0001323,98.5786,198.4222,84.4428,275.6905,0,U,32382,999,96933,-.12851E-5,-.47E-6,0
CARTOSAT-2A,2008-021A,2026-07-10T20:33:47.142432,14.79272533,.0012837,97.7626,239.7561,40.2554,319.9606,0,U,32783,999,98230,.19333E-4,.94E-6,0
HUANJING 1A (HJ-1A),2008-041A,2026-07-10T19:59:26.886048,14.84040613,.002052,97.6695,176.7580,62.9252,297.4054,0,U,33320,999,96191,.54508E-4,.404E-5,0
HUANJING 1B (HJ-1B),2008-041B,2026-07-10T21:07:40.157760,14.83361316,.0037905,97.6533,179.9037,104.7879,255.7540,0,U,33321,999,96192,.93077E-4,.72E-5,0
GEOEYE 1,2008-042A,2026-07-10T18:56:11.244192,14.64647137,.0004278,98.1328,265.4365,1.6307,358.4909,0,U,33331,999,95360,.49075E-4,.213E-5,0
THEOS,2008-049A,2026-07-10T20:28:49.638720,14.20136341,.0001103,98.5562,248.3673,86.5670,273.5633,0,U,33396,999,92132,.44392E-4,.52E-6,0
COSMO-SKYMED 3,2008-054A,2026-07-10T20:19:47.018208,15.07097337,.0015454,97.8265,50.8101,180.0671,180.0557,0,U,33412,999,96050,.11318E-3,.1637E-4,0
YAOGAN-4,2008-061A,2026-07-10T05:44:13.695360,14.83245790,.00142792,97.9305,124.5797,1.9835,358.1433,0,U,33446,999,94908,.80608221E-4,.606E-5,0
GOSAT (IBUKI),2009-002A,2026-07-10T06:03:02.960640,14.67535064,.00010349,98.0915,302.0457,88.6000,271.5323,0,U,33492,999,93484,-.1223841E-5,-.55E-6,0
DEIMOS-1,2009-041A,2026-07-10T20:35:14.195616,14.75260616,.0002721,97.7429,348.0631,98.8173,261.3345,0,U,35681,999,91037,.26335E-4,.131E-5,0
